{
  "type": "FeatureCollection",
  "features": [
    {
      "type": "Feature",
      "properties": {
        "norad_id": 37781,
        "name": "HAIYANG-2A",
        "group": "resource",
        "lat": 41.40566589028323,
        "lon": 168.7933781487532,
        "alt_km": 963.7355165464251,
        "timestamp": "2025-12-05T09:41:18.778300+00:00",
        "meta_object_name": "HAIYANG-2A",
        "meta_object_id": "2011-043A",
        "meta_epoch": "2025-12-04T19:05:25.013760",
        "meta_mean_motion": 13.78834407,
        "meta_eccentricity": 0.0001647,
        "meta_inclination": 99.3377,
        "meta_ra_of_asc_node": 339.8524,
        "meta_arg_of_pericenter": 95.3097,
        "meta_mean_anomaly": 264.8242,
        "meta_ephemeris_type": 0,
        "meta_classification_type": "U",
        "meta_norad_cat_id": 37781,
        "meta_element_set_no": 999,
        "meta_rev_at_epoch": 71989,
        "meta_bstar": 6.6817e-05,
        "meta_mean_motion_dot": 2.4e-07,
        "meta_mean_motion_ddot": 0,
        "tle_line1": "1 37781U 11043A   25338.79542840  .00000024  00000+0  66817-4 0  9992",
        "tle_line2": "2 37781  99.3377 339.8524 0001647  95.3097 264.8242 13.78834407719898"
      },
      "geometry": {
        "type": "Point",
        "coordinates": [
          168.7933781487532,
          41.40566589028323
        ]
      }
    },
    {
      "type": "Feature",
      "properties": {
        "norad_id": 37791,
        "name": "RASAT",
        "group": "resource",
        "lat": 64.7695715984588,
        "lon": 51.256972759977664,
        "alt_km": 647.0294260034789,
        "timestamp": "2025-12-05T09:41:18.778311+00:00",
        "meta_object_name": "RASAT",
        "meta_object_id": "2011-044D",
        "meta_epoch": "2025-12-04T19:10:36.688800",
        "meta_mean_motion": 14.67892259,
        "meta_eccentricity": 0.0021949,
        "meta_inclination": 98.0655,
        "meta_ra_of_asc_node": 68.1747,
        "meta_arg_of_pericenter": 88.9325,
        "meta_mean_anomaly": 23.891,
        "meta_ephemeris_type": 0,
        "meta_classification_type": "U",
        "meta_norad_cat_id": 37791,
        "meta_element_set_no": 999,
        "meta_rev_at_epoch": 76466,
        "meta_bstar": 0.00022629,
        "meta_mean_motion_dot": 1.249e-05,
        "meta_mean_motion_ddot": 0,
        "tle_line1": "1 37791U 11044D   25338.79903575  .00001249  00000+0  22629-3 0  9992",
        "tle_line2": "2 37791  98.0655  68.1747 0021949  88.9325  23.8910 14.67892259764660"
      },
      "geometry": {
        "type": "Point",
        "coordinates": [
          51.256972759977664,
          64.7695715984588
        ]
      }
    },
    {
      "type": "Feature",
      "properties": {
        "norad_id": 37841,
        "name": "SRMSAT",
        "group": "resource",
        "lat": 7.975562303490106,
        "lon": -50.338314513175554,
        "alt_km": 848.7413661083592,
        "timestamp": "2025-12-05T09:41:18.778323+00:00",
        "meta_object_name": "SRMSAT",
        "meta_object_id": "2011-058D",
        "meta_epoch": "2025-12-04T16:21:06.385824",
        "meta_mean_motion": 14.11507205,
        "meta_eccentricity": 0.0011717,
        "meta_inclination": 19.9698,
        "meta_ra_of_asc_node": 156.7245,
        "meta_arg_of_pericenter": 224.0627,
        "meta_mean_anomaly": 213.4569,
        "meta_ephemeris_type": 0,
        "meta_classification_type": "U",
        "meta_norad_cat_id": 37841,
        "meta_element_set_no": 999,
        "meta_rev_at_epoch": 73030,
        "meta_bstar": 0.00015376,
        "meta_mean_motion_dot": 5.48e-06,
        "meta_mean_motion_ddot": 0,
        "tle_line1": "1 37841U 11058D   25338.68132391  .00000548  00000+0  15376-3 0  9993",
        "tle_line2": "2 37841  19.9698 156.7245 0011717 224.0627 213.4569 14.11507205730306"
      },
      "geometry": {
        "type": "Point",
        "coordinates": [
          -50.338314513175554,
          7.975562303490106
        ]
      }
    },
    {
      "type": "Feature",
      "properties": {
        "norad_id": 38012,
        "name": "PLEIADES 1A",
        "group": "resource",
        "lat": 70.52949749069911,
        "lon": -103.69670222859006,
        "alt_km": 690.1642988216845,
        "timestamp": "2025-12-05T09:41:18.778334+00:00",
        "meta_object_name": "PLEIADES 1A",
        "meta_object_id": "2011-076F",
        "meta_epoch": "2025-12-04T18:53:35.699136",
        "meta_mean_motion": 14.58549857,
        "meta_eccentricity": 0.0001391,
        "meta_inclination": 98.1833,
        "meta_ra_of_asc_node": 51.6782,
        "meta_arg_of_pericenter": 80.509,
        "meta_mean_anomaly": 32.1411,
        "meta_ephemeris_type": 0,
        "meta_classification_type": "U",
        "meta_norad_cat_id": 38012,
        "meta_element_set_no": 999,
        "meta_rev_at_epoch": 74365,
        "meta_bstar": 0.00020023,
        "meta_mean_motion_dot": 8.85e-06,
        "meta_mean_motion_ddot": 0,
        "tle_line1": "1 38012U 11076F   25338.78721874  .00000885  00000+0  20023-3 0  9994",
        "tle_line2": "2 38012  98.1833  51.6782 0001391  80.5090  32.1411 14.58549857743656"
      },
      "geometry": {
        "type": "Point",
        "coordinates": [
          -103.69670222859006,
          70.52949749069911
        ]
      }
    },
    {
      "type": "Feature",
      "properties": {
        "norad_id": 38038,
        "name": "ZIYUAN 1-02C (ZY 1-02C)",
        "group": "resource",
        "lat": -17.277667476648606,
        "lon": -137.09284320273008,
        "alt_km": 766.196595862828,
        "timestamp": "2025-12-05T09:41:18.778344+00:00",
        "meta_object_name": "ZIYUAN 1-02C (ZY 1-02C)",
        "meta_object_id": "2011-079A",
        "meta_epoch": "2025-12-04T18:26:04.006752",
        "meta_mean_motion": 14.37998695,
        "meta_eccentricity": 0.0006841,
        "meta_inclination": 98.4345,
        "meta_ra_of_asc_node": 44.9285,
        "meta_arg_of_pericenter": 160.5591,
        "meta_mean_anomaly": 348.3398,
        "meta_ephemeris_type": 0,
        "meta_classification_type": "U",
        "meta_norad_cat_id": 38038,
        "meta_element_set_no": 999,
        "meta_rev_at_epoch": 73126,
        "meta_bstar": 0.00035004,
        "meta_mean_motion_dot": 1.016e-05,
        "meta_mean_motion_ddot": 0,
        "tle_line1": "1 38038U 11079A   25338.76810193  .00001016  00000+0  35004-3 0  9998",
        "tle_line2": "2 38038  98.4345  44.9285 0006841 160.5591 348.3398 14.37998695731263"
      },
      "geometry": {
        "type": "Point",
        "coordinates": [
          -137.09284320273008,
          -17.277667476648606
        ]
      }
    },
    {
      "type": "Feature",
      "properties": {
        "norad_id": 38046,
        "name": "ZIYUAN 3-1 (ZY 3-1)",
        "group": "resource",
        "lat": 10.878444151649884,
        "lon": -132.9548848329818,
        "alt_km": 369.6923176461378,
        "timestamp": "2025-12-05T09:41:18.778355+00:00",
        "meta_object_name": "ZIYUAN 3-1 (ZY 3-1)",
        "meta_object_id": "2012-001A",
        "meta_epoch": "2025-12-04T17:38:43.795968",
        "meta_mean_motion": 15.67074659,
        "meta_eccentricity": 0.0002143,
        "meta_inclination": 97.1774,
        "meta_ra_of_asc_node": 44.9744,
        "meta_arg_of_pericenter": 25.8324,
        "meta_mean_anomaly": 334.3044,
        "meta_ephemeris_type": 0,
        "meta_classification_type": "U",
        "meta_norad_cat_id": 38046,
        "meta_element_set_no": 999,
        "meta_rev_at_epoch": 77371,
        "meta_bstar": 0.0010925,
        "meta_mean_motion_dot": 0.00117689,
        "meta_mean_motion_ddot": 0,
        "tle_line1": "1 38046U 12001A   25338.73522912  .00117689  00000+0  10925-2 0  9997",
        "tle_line2": "2 38046  97.1774  44.9744 0002143  25.8324 334.3044 15.67074659773710"
      },
      "geometry": {
        "type": "Point",
        "coordinates": [
          -132.9548848329818,
          10.878444151649884
        ]
      }
    },
    {
      "type": "Feature",
      "properties": {
        "norad_id": 38338,
        "name": "ARIRANG-3 (KOMPSAT-3)",
        "group": "resource",
        "lat": -75.53827086872104,
        "lon": -31.439132057507553,
        "alt_km": 694.2981645687305,
        "timestamp": "2025-12-05T09:41:18.778365+00:00",
        "meta_object_name": "ARIRANG-3 (KOMPSAT-3)",
        "meta_object_id": "2012-025B",
        "meta_epoch": "2025-12-04T19:15:33.098688",
        "meta_mean_motion": 14.61696225,
        "meta_eccentricity": 0.0005926,
        "meta_inclination": 98.331,
        "meta_ra_of_asc_node": 293.3326,
        "meta_arg_of_pericenter": 3.9918,
        "meta_mean_anomaly": 356.1328,
        "meta_ephemeris_type": 0,
        "meta_classification_type": "U",
        "meta_norad_cat_id": 38338,
        "meta_element_set_no": 999,
        "meta_rev_at_epoch": 72294,
        "meta_bstar": 0.00024338,
        "meta_mean_motion_dot": 1.164e-05,
        "meta_mean_motion_ddot": 0,
        "tle_line1": "1 38338U 12025B   25338.80246642  .00001164  00000+0  24338-3 0  9992",
        "tle_line2": "2 38338  98.3310 293.3326 0005926   3.9918 356.1328 14.61696225722945"
      },
      "geometry": {
        "type": "Point",
        "coordinates": [
          -31.439132057507553,
          -75.53827086872104
        ]
      }
    }
  ]
}